{
  "type": "FeatureCollection",
  "features": [
    {
      "type": "Feature",
      "properties": {
        "norad_id": 39227,
        "name": "ARIRANG-5 (KOMPSAT-5)",
        "group": "resource",
        "lat": 14.593879287547969,
        "lon": -0.5027628958720913,
        "alt_km": 555.3401979874407,
        "timestamp": "2025-12-19T06:59:43.561012+00:00",
        "meta_object_name": "ARIRANG-5 (KOMPSAT-5)",
        "meta_object_id": "2013-042A",
        "meta_epoch": "2025-12-18T23:52:45.249024",
        "meta_mean_motion": 15.045345,
        "meta_eccentricity": 0.0003448,
        "meta_inclination": 97.6148,
        "meta_ra_of_asc_node": 177.2089,
        "meta_arg_of_pericenter": 39.3205,
        "meta_mean_anomaly": 320.8271,
        "meta_ephemeris_type": 0,
        "meta_classification_type": "U",
        "meta_norad_cat_id": 39227,
        "meta_element_set_no": 999,
        "meta_rev_at_epoch": 67676,
        "meta_bstar": 0.00018294696,
        "meta_mean_motion_dot": 2.503e-05,
        "meta_mean_motion_ddot": 0,
        "tle_line1": "1 39227U 13042A   25352.99496816  .00002503  00000+0  18295-3 0  9999",
        "tle_line2": "2 39227  97.6148 177.2089 0003448  39.3205 320.8271 15.04534500676767"
      },
      "geometry": {
        "type": "Point",
        "coordinates": [
          -0.5027628958720913,
          14.593879287547969
        ]
      }
    },
    {
      "type": "Feature",
      "properties": {
        "norad_id": 39418,
        "name": "SKYSAT-A",
        "group": "resource",
        "lat": -14.338807747222758,
        "lon": 45.207594467597474,
        "alt_km": 545.8241686326801,
        "timestamp": "2025-12-19T06:59:43.561023+00:00",
        "meta_object_name": "SKYSAT-A",
        "meta_object_id": "2013-066C",
        "meta_epoch": "2025-12-18T23:06:57.800736",
        "meta_mean_motion": 15.11647088,
        "meta_eccentricity": 0.00211655,
        "meta_inclination": 97.4101,
        "meta_ra_of_asc_node": 42.9828,
        "meta_arg_of_pericenter": 214.0109,
        "meta_mean_anomaly": 145.9767,
        "meta_ephemeris_type": 0,
        "meta_classification_type": "U",
        "meta_norad_cat_id": 39418,
        "meta_element_set_no": 999,
        "meta_rev_at_epoch": 66124,
        "meta_bstar": 0.00019680502,
        "meta_mean_motion_dot": 3.299e-05,
        "meta_mean_motion_ddot": 0,
        "tle_line1": "1 39418U 13066C   25352.96316899  .00003299  00000+0  19681-3 0  9999",
        "tle_line2": "2 39418  97.4101  42.9828 0021165 214.0109 145.9767 15.11647088661243"
      },
      "geometry": {
        "type": "Point",
        "coordinates": [
          45.207594467597474,
          -14.338807747222758
        ]
      }
    },
    {
      "type": "Feature",
      "properties": {
        "norad_id": 39419,
        "name": "DUBAISAT-2",
        "group": "resource",
        "lat": 50.78725706245748,
        "lon": -25.724006666763525,
        "alt_km": 539.27037178711,
        "timestamp": "2025-12-19T06:59:43.561033+00:00",
        "meta_object_name": "DUBAISAT-2",
        "meta_object_id": "2013-066D",
        "meta_epoch": "2025-12-18T22:48:28.867104",
        "meta_mean_motion": 15.08414359,
        "meta_eccentricity": 0.00099912,
        "meta_inclination": 97.4443,
        "meta_ra_of_asc_node": 343.1666,
        "meta_arg_of_pericenter": 298.1141,
        "meta_mean_anomaly": 61.9077,
        "meta_ephemeris_type": 0,
        "meta_classification_type": "U",
        "meta_norad_cat_id": 39419,
        "meta_element_set_no": 999,
        "meta_rev_at_epoch": 65920,
        "meta_bstar": 0.00022718721,
        "meta_mean_motion_dot": 3.477e-05,
        "meta_mean_motion_ddot": 0,
        "tle_line1": "1 39419U 13066D   25352.95033411  .00003477  00000+0  22719-3 0  9999",
        "tle_line2": "2 39419  97.4443 343.1666 0009991 298.1141  61.9077 15.08414359659204"
      },
      "geometry": {
        "type": "Point",
        "coordinates": [
          -25.724006666763525,
          50.78725706245748
        ]
      }
    },
    {
      "type": "Feature",
      "properties": {
        "norad_id": 39574,
        "name": "GPM-CORE",
        "group": "resource",
        "lat": -19.059826604715077,
        "lon": -178.54762737212693,
        "alt_km": 437.0235543213321,
        "timestamp": "2025-12-19T06:59:43.561043+00:00",
        "meta_object_name": "GPM-CORE",
        "meta_object_id": "2014-009C",
        "meta_epoch": "2025-12-18T21:45:46.524672",
        "meta_mean_motion": 15.44556333,
        "meta_eccentricity": 0.00094779,
        "meta_inclination": 64.9721,
        "meta_ra_of_asc_node": 192.0298,
        "meta_arg_of_pericenter": 247.4423,
        "meta_mean_anomaly": 112.5715,
        "meta_ephemeris_type": 0,
        "meta_classification_type": "U",
        "meta_norad_cat_id": 39574,
        "meta_element_set_no": 999,
        "meta_rev_at_epoch": 66996,
        "meta_bstar": 0.00014108517,
        "meta_mean_motion_dot": 6.346e-05,
        "meta_mean_motion_ddot": 0,
        "tle_line1": "1 39574U 14009C   25352.90678848  .00006346  00000+0  14109-3 0  9995",
        "tle_line2": "2 39574  64.9721 192.0298 0009477 247.4423 112.5715 15.44556333669960"
      },
      "geometry": {
        "type": "Point",
        "coordinates": [
          -178.54762737212693,
          -19.059826604715077
        ]
      }
    },
    {
      "type": "Feature",
      "properties": {
        "norad_id": 39634,
        "name": "SENTINEL-1A",
        "group": "resource",
        "lat": -39.00970573235012,
        "lon": 5.127617583799033,
        "alt_km": 702.6645335073326,
        "timestamp": "2025-12-19T06:59:43.561053+00:00",
        "meta_object_name": "SENTINEL-1A",
        "meta_object_id": "2014-016A",
        "meta_epoch": "2025-12-18T22:56:51.022176",
        "meta_mean_motion": 14.59201776,
        "meta_eccentricity": 0.00012291,
        "meta_inclination": 98.1798,
        "meta_ra_of_asc_node": 358.1061,
        "meta_arg_of_pericenter": 82.7076,
        "meta_mean_anomaly": 277.4264,
        "meta_ephemeris_type": 0,
        "meta_classification_type": "U",
        "meta_norad_cat_id": 39634,
        "meta_element_set_no": 999,
        "meta_rev_at_epoch": 62373,
        "meta_bstar": 4.4408232e-05,
        "meta_mean_motion_dot": 1.64e-06,
        "meta_mean_motion_ddot": 0,
        "tle_line1": "1 39634U 14016A   25352.95614609  .00000164  00000+0  44408-4 0  9998",
        "tle_line2": "2 39634  98.1798 358.1061 0001229  82.7076 277.4264 14.59201776623732"
      },
      "geometry": {
        "type": "Point",
        "coordinates": [
          5.127617583799033,
          -39.00970573235012
        ]
      }
    },
    {
      "type": "Feature",
      "properties": {
        "norad_id": 39731,
        "name": "KAZEOSAT 1",
        "group": "resource",
        "lat": -69.90339081142407,
        "lon": -138.59443608420324,
        "alt_km": 759.692422257398,
        "timestamp": "2025-12-19T06:59:43.561063+00:00",
        "meta_object_name": "KAZEOSAT 1",
        "meta_object_id": "2014-024A",
        "meta_epoch": "2025-12-18T23:10:16.310784",
        "meta_mean_motion": 14.42065284,
        "meta_eccentricity": 0.00011534,
        "meta_inclination": 98.3434,
        "meta_ra_of_asc_node": 64.7336,
        "meta_arg_of_pericenter": 97.78,
        "meta_mean_anomaly": 262.3521,
        "meta_ephemeris_type": 0,
        "meta_classification_type": "U",
        "meta_norad_cat_id": 39731,
        "meta_element_set_no": 999,
        "meta_rev_at_epoch": 61258,
        "meta_bstar": 2.4239836e-05,
        "meta_mean_motion_dot": 3.7e-07,
        "meta_mean_motion_ddot": 0,
        "tle_line1": "1 39731U 14024A   25352.96546656  .00000037  00000+0  24240-4 0  9993",
        "tle_line2": "2 39731  98.3434  64.7336 0001153  97.7800 262.3521 14.42065284612585"
      },
      "geometry": {
        "type": "Point",
        "coordinates": [
          -138.59443608420324,
          -69.90339081142407
        ]
      }
    },
    {
      "type": "Feature",
      "properties": {
        "norad_id": 39766,
        "name": "ALOS-2",
        "group": "resource",
        "lat": -62.50349765485362,
        "lon": 103.56365607831295,
        "alt_km": 639.149111436298,
        "timestamp": "2025-12-19T06:59:43.561074+00:00",
        "meta_object_name": "ALOS-2",
        "meta_object_id": "2014-029A",
        "meta_epoch": "2025-12-19T02:24:46.375200",
        "meta_mean_motion": 14.79465658,
        "meta_eccentricity": 0.0001401,
        "meta_inclination": 97.9229,
        "meta_ra_of_asc_node": 87.8563,
        "meta_arg_of_pericenter": 102.1345,
        "meta_mean_anomaly": 258.0023,
        "meta_ephemeris_type": 0,
        "meta_classification_type": "U",
        "meta_norad_cat_id": 39766,
        "meta_element_set_no": 999,
        "meta_rev_at_epoch": 62495,
        "meta_bstar": 0.0002541,
        "meta_mean_motion_dot": 1.846e-05,
        "meta_mean_motion_ddot": 0,
        "tle_line1": "1 39766U 14029A   25353.10053675  .00001846  00000+0  25410-3 0  9995",
        "tle_line2": "2 39766  97.9229  87.8563 0001401 102.1345 258.0023 14.79465658624951"
      },
      "geometry": {
        "type": "Point",
        "coordinates": [
          103.56365607831295,
          -62.50349765485362
        ]
      }
    }
  ]
}